[{"OBJECT_NAME":"ONEWEB-0197","OBJECT_ID":"2021-031AC","EPOCH":"2025-10-22T04:56:47.669856","MEAN_MOTION":13.14503199,"ECCENTRICITY":0.0001671,"INCLINATION":87.9027,"RA_OF_ASC_NODE":337.0972,"ARG_OF_PERICENTER":87.6566,"MEAN_ANOMALY":272.4755,"EPHEMERIS_TYPE":0,"CLASSIFICATION_TYPE":"U","NORAD_CAT_ID":48236,"ELEMENT_SET_NO":999,"REV_AT_EPOCH":21692,"BSTAR":9.0345e-5,"MEAN_MOTION_DOT":4.6e-7,"MEAN_MOTION_DDOT":0},{"OBJECT_NAME":"ONEWEB-0194","OBJECT_ID":"2021-031AD","EPOCH":"2025-10-22T04:27:19.396224","MEAN_MOTION":13.14502948,"ECCENTRICITY":0.0001734,"INCLINATION":87.9028,"RA_OF_ASC_NODE":337.1178,"ARG_OF_PERICENTER":103.7789,"MEAN_ANOMALY":256.3534,"EPHEMERIS_TYPE":0,"CLASSIFICATION_TYPE":"U","NORAD_CAT_ID":48237,"ELEMENT_SET_NO":999,"REV_AT_EPOCH":21709,"BSTAR":0.00064866,"MEAN_MOTION_DOT":2.53e-6,"MEAN_MOTION_DDOT":0},{"OBJECT_NAME":"ONEWEB-0193","OBJECT_ID":"2021-031AE","EPOCH":"2025-10-22T03:00:30.866400","MEAN_MOTION":13.1450047,"ECCENTRICITY":0.000158,"INCLINATION":87.9022,"RA_OF_ASC_NODE":337.1265,"ARG_OF_PERICENTER":109.4793,"MEAN_ANOMALY":250.6507,"EPHEMERIS_TYPE":0,"CLASSIFICATION_TYPE":"U","NORAD_CAT_ID":48238,"ELEMENT_SET_NO":999,"REV_AT_EPOCH":21703,"BSTAR":0.00020355,"MEAN_MOTION_DOT":8.8e-7,"MEAN_MOTION_DDOT":0},{"OBJECT_NAME":"ONEWEB-0191","OBJECT_ID":"2021-031AF","EPOCH":"2025-10-22T03:16:30.314208","MEAN_MOTION":13.14504695,"ECCENTRICITY":0.0001806,"INCLINATION":87.9038,"RA_OF_ASC_NODE":337.1086,"ARG_OF_PERICENTER":97.2521,"MEAN_ANOMALY":262.8814,"EPHEMERIS_TYPE":0,"CLASSIFICATION_TYPE":"U","NORAD_CAT_ID":48239,"ELEMENT_SET_NO":999,"REV_AT_EPOCH":21689,"BSTAR":-2.0018e-5,"MEAN_MOTION_DOT":5.0e-8,"MEAN_MOTION_DDOT":0},{"OBJECT_NAME":"ONEWEB-0195","OBJECT_ID":"2021-031AG","EPOCH":"2025-10-22T04:33:01.953216","MEAN_MOTION":13.14501676,"ECCENTRICITY":0.0002251,"INCLINATION":87.903,"RA_OF_ASC_NODE":337.0941,"ARG_OF_PERICENTER":96.7537,"MEAN_ANOMALY":263.3848,"EPHEMERIS_TYPE":0,"CLASSIFICATION_TYPE":"U","NORAD_CAT_ID":48240,"ELEMENT_SET_NO":999,"REV_AT_EPOCH":21688,"BSTAR":0.00084283,"MEAN_MOTION_DOT":3.25e-6,"MEAN_MOTION_DDOT":0},{"OBJECT_NAME":"ONEWEB-0201","OBJECT_ID":"2021-031AH","EPOCH":"2025-10-22T04:16:06.331584","MEAN_MOTION":13.14503085,"ECCENTRICITY":0.0001989,"INCLINATION":87.9018,"RA_OF_ASC_NODE":337.1437,"ARG_OF_PERICENTER":87.9879,"MEAN_ANOMALY":272.1479,"EPHEMERIS_TYPE":0,"CLASSIFICATION_TYPE":"U","NORAD_CAT_ID":48241,"ELEMENT_SET_NO":999,"REV_AT_EPOCH":21711,"BSTAR":0.00065767,"MEAN_MOTION_DOT":2.57e-6,"MEAN_MOTION_DDOT":0},{"OBJECT_NAME":"ONEWEB-0207","OBJECT_ID":"2021-031AJ","EPOCH":"2025-10-22T03:47:20.950368","MEAN_MOTION":13.14503145,"ECCENTRICITY":0.000183,"INCLINATION":87.9026,"RA_OF_ASC_NODE":337.1044,"ARG_OF_PERICENTER":89.5123,"MEAN_ANOMALY":270.6216,"EPHEMERIS_TYPE":0,"CLASSIFICATION_TYPE":"U","NORAD_CAT_ID":48242,"ELEMENT_SET_NO":999,"REV_AT_EPOCH":21702,"BSTAR":-0.00055592,"MEAN_MOTION_DOT":-1.93e-6,"MEAN_MOTION_DDOT":0},{"OBJECT_NAME":"ONEWEB-0208","OBJECT_ID":"2021-031AK","EPOCH":"2025-10-22T03:21:04.893408","MEAN_MOTION":13.14504511,"ECCENTRICITY":0.0002055,"INCLINATION":87.9029,"RA_OF_ASC_NODE":337.1242,"ARG_OF_PERICENTER":97.1404,"MEAN_ANOMALY":262.996,"EPHEMERIS_TYPE":0,"CLASSIFICATION_TYPE":"U","NORAD_CAT_ID":48243,"ELEMENT_SET_NO":999,"REV_AT_EPOCH":21703,"BSTAR":-0.00028292,"MEAN_MOTION_DOT":-9.2e-7,"MEAN_MOTION_DDOT":0},{"OBJECT_NAME":"ONEWEB-0200","OBJECT_ID":"2021-031AL","EPOCH":"2025-10-22T04:18:11.259072","MEAN_MOTION":13.14502349,"ECCENTRICITY":0.0001983,"INCLINATION":87.9027,"RA_OF_ASC_NODE":337.106,"ARG_OF_PERICENTER":95.7902,"MEAN_ANOMALY":264.3454,"EPHEMERIS_TYPE":0,"CLASSIFICATION_TYPE":"U","NORAD_CAT_ID":48244,"ELEMENT_SET_NO":999,"REV_AT_EPOCH":21696,"BSTAR":0.00069903,"MEAN_MOTION_DOT":2.72e-6,"MEAN_MOTION_DDOT":0},{"OBJECT_NAME":"ONEWEB-0217","OBJECT_ID":"2021-031AM","EPOCH":"2025-10-22T02:51:24.510816","MEAN_MOTION":13.14503689,"ECCENTRICITY":0.0002159,"INCLINATION":87.9041,"RA_OF_ASC_NODE":337.1078,"ARG_OF_PERICENTER":97.0047,"MEAN_ANOMALY":263.1329,"EPHEMERIS_TYPE":0,"CLASSIFICATION_TYPE":"U","NORAD_CAT_ID":48245,"ELEMENT_SET_NO":999,"REV_AT_EPOCH":21690,"BSTAR":0.00075933,"MEAN_MOTION_DOT":2.94e-6,"MEAN_MOTION_DDOT":0},{"OBJECT_NAME":"ONEWEB-0211","OBJECT_ID":"2021-045A","EPOCH":"2025-10-22T03:58:59.956608","MEAN_MOTION":13.16086921,"ECCENTRICITY":0.0001991,"INCLINATION":87.8973,"RA_OF_ASC_NODE":306.6273,"ARG_OF_PERICENTER":102.1083,"MEAN_ANOMALY":258.0271,"EPHEMERIS_TYPE":0,"CLASSIFICATION_TYPE":"U","NORAD_CAT_ID":48767,"ELEMENT_SET_NO":999,"REV_AT_EPOCH":21313,"BSTAR":0.00030069,"MEAN_MOTION_DOT":1.27e-6,"MEAN_MOTION_DDOT":0},{"OBJECT_NAME":"ONEWEB-0223","OBJECT_ID":"2021-045B","EPOCH":"2025-10-22T03:12:43.278336","MEAN_MOTION":13.15549442,"ECCENTRICITY":0.0002,"INCLINATION":87.8966,"RA_OF_ASC_NODE":306.6909,"ARG_OF_PERICENTER":106.3194,"MEAN_ANOMALY":253.8156,"EPHEMERIS_TYPE":0,"CLASSIFICATION_TYPE":"U","NORAD_CAT_ID":48768,"ELEMENT_SET_NO":999,"REV_AT_EPOCH":21310,"BSTAR":-0.00019308,"MEAN_MOTION_DOT":-6.0e-7,"MEAN_MOTION_DDOT":0},{"OBJECT_NAME":"ONEWEB-0230","OBJECT_ID":"2021-045C","EPOCH":"2025-10-22T02:31:39.318816","MEAN_MOTION":13.15547969,"ECCENTRICITY":0.0001689,"INCLINATION":87.8962,"RA_OF_ASC_NODE":306.7286,"ARG_OF_PERICENTER":92.081,"MEAN_ANOMALY":268.0514,"EPHEMERIS_TYPE":0,"CLASSIFICATION_TYPE":"U","NORAD_CAT_ID":48769,"ELEMENT_SET_NO":999,"REV_AT_EPOCH":21336,"BSTAR":0.00031161,"MEAN_MOTION_DOT":1.3e-6,"MEAN_MOTION_DDOT":0},{"OBJECT_NAME":"ONEWEB-0237","OBJECT_ID":"2021-045D","EPOCH":"2025-10-22T04:05:12.427872","MEAN_MOTION":13.1554885,"ECCENTRICITY":0.0001831,"INCLINATION":87.8966,"RA_OF_ASC_NODE":306.7136,"ARG_OF_PERICENTER":101.8098,"MEAN_ANOMALY":258.3238,"EPHEMERIS_TYPE":0,"CLASSIFICATION_TYPE":"U","NORAD_CAT_ID":48770,"ELEMENT_SET_NO":999,"REV_AT_EPOCH":21309,"BSTAR":0.000413,"MEAN_MOTION_DOT":1.68e-6,"MEAN_MOTION_DDOT":0},{"OBJECT_NAME":"ONEWEB-0235","OBJECT_ID":"2021-045E","EPOCH":"2025-10-22T03:28:41.740320","MEAN_MOTION":13.15549109,"ECCENTRICITY":0.0001971,"INCLINATION":87.8965,"RA_OF_ASC_NODE":306.6897,"ARG_OF_PERICENTER":107.4995,"MEAN_ANOMALY":252.635,"EPHEMERIS_TYPE":0,"CLASSIFICATION_TYPE":"U","NORAD_CAT_ID":48771,"ELEMENT_SET_NO":999,"REV_AT_EPOCH":21308,"BSTAR":-0.00013272,"MEAN_MOTION_DOT":-3.7e-7,"MEAN_MOTION_DDOT":0},{"OBJECT_NAME":"ONEWEB-0242","OBJECT_ID":"2021-045F","EPOCH":"2025-10-22T03:19:34.449024","MEAN_MOTION":13.15547628,"ECCENTRICITY":0.0001737,"INCLINATION":87.8974,"RA_OF_ASC_NODE":306.6803,"ARG_OF_PERICENTER":97.6987,"MEAN_ANOMALY":262.4341,"EPHEMERIS_TYPE":0,"CLASSIFICATION_TYPE":"U","NORAD_CAT_ID":48772,"ELEMENT_SET_NO":999,"REV_AT_EPOCH":21312,"BSTAR":-0.00023447,"MEAN_MOTION_DOT":-7.5e-7,"MEAN_MOTION_DDOT":0},{"OBJECT_NAME":"ONEWEB-0241","OBJECT_ID":"2021-045G","EPOCH":"2025-10-22T03:01:19.564896","MEAN_MOTION":13.15548084,"ECCENTRICITY":0.0002185,"INCLINATION":87.8961,"RA_OF_ASC_NODE":306.7256,"ARG_OF_PERICENTER":101.2656,"MEAN_ANOMALY":258.872,"EPHEMERIS_TYPE":0,"CLASSIFICATION_TYPE":"U","NORAD_CAT_ID":48773,"ELEMENT_SET_NO":999,"REV_AT_EPOCH":21303,"BSTAR":-4.5088e-5,"MEAN_MOTION_DOT":-4.0e-8,"MEAN_MOTION_DDOT":0}]
