ONEWEB-0197             
1 48236U 21031AC  25295.20610729  .00000046  00000+0  90345-4 0  9994
2 48236  87.9027 337.0972 0001671  87.6566 272.4755 13.14503199216920
ONEWEB-0194             
1 48237U 21031AD  25295.18564116  .00000253  00000+0  64866-3 0  9998
2 48237  87.9028 337.1178 0001734 103.7789 256.3534 13.14502948217094
ONEWEB-0193             
1 48238U 21031AE  25295.12535725  .00000088  00000+0  20355-3 0  9998
2 48238  87.9022 337.1265 0001580 109.4793 250.6507 13.14500470217032
ONEWEB-0191             
1 48239U 21031AF  25295.13646197  .00000005  00000+0 -20018-4 0  9993
2 48239  87.9038 337.1086 0001806  97.2521 262.8814 13.14504695216897
ONEWEB-0195             
1 48240U 21031AG  25295.18960594  .00000325  00000+0  84283-3 0  9997
2 48240  87.9030 337.0941 0002251  96.7537 263.3848 13.14501676216884
ONEWEB-0201             
1 48241U 21031AH  25295.17785106  .00000257  00000+0  65767-3 0  9991
2 48241  87.9018 337.1437 0001989  87.9879 272.1479 13.14503085217111
ONEWEB-0207             
1 48242U 21031AJ  25295.15788137 -.00000193  00000+0 -55592-3 0  9993
2 48242  87.9026 337.1044 0001830  89.5123 270.6216 13.14503145217029
ONEWEB-0208             
1 48243U 21031AK  25295.13963997 -.00000092  00000+0 -28292-3 0  9996
2 48243  87.9029 337.1242 0002055  97.1404 262.9960 13.14504511217039
ONEWEB-0200             
1 48244U 21031AL  25295.17929698  .00000272  00000+0  69903-3 0  9993
2 48244  87.9027 337.1060 0001983  95.7902 264.3454 13.14502349216964
ONEWEB-0217             
1 48245U 21031AM  25295.11903369  .00000294  00000+0  75933-3 0  9999
2 48245  87.9041 337.1078 0002159  97.0047 263.1329 13.14503689216901
ONEWEB-0211             
1 48767U 21045A   25295.16597172  .00000127  00000+0  30069-3 0  9995
2 48767  87.8973 306.6273 0001991 102.1083 258.0271 13.16086921213130
ONEWEB-0223             
1 48768U 21045B   25295.13383424 -.00000060  00000+0 -19308-3 0  9997
2 48768  87.8966 306.6909 0002000 106.3194 253.8156 13.15549442213103
ONEWEB-0230             
1 48769U 21045C   25295.10531619  .00000130  00000+0  31161-3 0  9993
2 48769  87.8962 306.7286 0001689  92.0810 268.0514 13.15547969213363
ONEWEB-0237             
1 48770U 21045D   25295.17028273  .00000168  00000+0  41300-3 0  9996
2 48770  87.8966 306.7136 0001831 101.8098 258.3238 13.15548850213094
ONEWEB-0235             
1 48771U 21045E   25295.14492755 -.00000037  00000+0 -13272-3 0  9998
2 48771  87.8965 306.6897 0001971 107.4995 252.6350 13.15549109213089
ONEWEB-0242             
1 48772U 21045F   25295.13859316 -.00000075  00000+0 -23447-3 0  9995
2 48772  87.8974 306.6803 0001737  97.6987 262.4341 13.15547628213126
ONEWEB-0241             
1 48773U 21045G   25295.12592089 -.00000004  00000+0 -45088-4 0  9994
2 48773  87.8961 306.7256 0002185 101.2656 258.8720 13.15548084213036
